STARLINK-33674          
1 63329U 25057Y   26068.93145413  .00028291  00000+0  10336-2 0  9990
2 63329  42.9993  29.5490 0000450 243.4812 116.5993 15.27581382 55818
ARCSTONE                
1 64540U 25135N   26068.88991918  .00026427  00000+0  94900-3 0  9995
2 64540  97.4495 185.9194 0004120 166.7863 193.3485 15.28638458 39847
